CCSDS_OMM_VERS = 2.0
CREATION_DATE  = 
ORIGINATOR     = 

OBJECT_NAME    = STARLINK-36461
OBJECT_ID      = 2026-002M
CENTER_NAME    = EARTH
REF_FRAME      = TEME
TIME_SYSTEM    = UTC
MEAN_ELEMENT_THEORY = SGP/SGP4

EPOCH          = 2026-01-30T22:00:00.999936
MEAN_MOTION    = 15.50512021
ECCENTRICITY   = .00018892
INCLINATION    = 42.9993
RA_OF_ASC_NODE = 179.9371
ARG_OF_PERICENTER = 280.7317
MEAN_ANOMALY   = 182.1882

EPHEMERIS_TYPE = 0
CLASSIFICATION_TYPE = U
NORAD_CAT_ID   = 67316
ELEMENT_SET_NO = 999
REV_AT_EPOCH   = 550
BSTAR          = .17913233E-2
MEAN_MOTION_DOT = .105928E-2
MEAN_MOTION_DDOT = 0

CCSDS_OMM_VERS = 2.0
CREATION_DATE  = 
ORIGINATOR     = 

OBJECT_NAME    = STARLINK-36450
OBJECT_ID      = 2026-002N
CENTER_NAME    = EARTH
REF_FRAME      = TEME
TIME_SYSTEM    = UTC
MEAN_ELEMENT_THEORY = SGP/SGP4

EPOCH          = 2026-01-30T22:00:00.999936
MEAN_MOTION    = 15.50510173
ECCENTRICITY   = .00016596
INCLINATION    = 42.9991
RA_OF_ASC_NODE = 179.9332
ARG_OF_PERICENTER = 273.9001
MEAN_ANOMALY   = 190.9345

EPHEMERIS_TYPE = 0
CLASSIFICATION_TYPE = U
NORAD_CAT_ID   = 67317
ELEMENT_SET_NO = 999
REV_AT_EPOCH   = 550
BSTAR          = .19564946E-2
MEAN_MOTION_DOT = .115866E-2
MEAN_MOTION_DDOT = 0

CCSDS_OMM_VERS = 2.0
CREATION_DATE  = 
ORIGINATOR     = 

OBJECT_NAME    = STARLINK-36498
OBJECT_ID      = 2026-002P
CENTER_NAME    = EARTH
REF_FRAME      = TEME
TIME_SYSTEM    = UTC
MEAN_ELEMENT_THEORY = SGP/SGP4

EPOCH          = 2026-01-30T22:00:00.999936
MEAN_MOTION    = 15.50511831
ECCENTRICITY   = .0002269
INCLINATION    = 42.9995
RA_OF_ASC_NODE = 179.9223
ARG_OF_PERICENTER = 277.9116
MEAN_ANOMALY   = 190.7550

EPHEMERIS_TYPE = 0
CLASSIFICATION_TYPE = U
NORAD_CAT_ID   = 67318
ELEMENT_SET_NO = 999
REV_AT_EPOCH   = 540
BSTAR          = .19083641E-2
MEAN_MOTION_DOT = .112975E-2
MEAN_MOTION_DDOT = 0

CCSDS_OMM_VERS = 2.0
CREATION_DATE  = 
ORIGINATOR     = 

OBJECT_NAME    = STARLINK-36470
OBJECT_ID      = 2026-002Q
CENTER_NAME    = EARTH
REF_FRAME      = TEME
TIME_SYSTEM    = UTC
MEAN_ELEMENT_THEORY = SGP/SGP4

EPOCH          = 2026-01-30T22:00:00.999936
MEAN_MOTION    = 15.50512351
ECCENTRICITY   = .00017441
INCLINATION    = 42.9992
RA_OF_ASC_NODE = 179.9278
ARG_OF_PERICENTER = 276.2319
MEAN_ANOMALY   = 190.5237

EPHEMERIS_TYPE = 0
CLASSIFICATION_TYPE = U
NORAD_CAT_ID   = 67319
ELEMENT_SET_NO = 999
REV_AT_EPOCH   = 540
BSTAR          = .17685098E-2
MEAN_MOTION_DOT = .104557E-2
MEAN_MOTION_DDOT = 0

CCSDS_OMM_VERS = 2.0
CREATION_DATE  = 
ORIGINATOR     = 

OBJECT_NAME    = STARLINK-36500
OBJECT_ID      = 2026-002R
CENTER_NAME    = EARTH
REF_FRAME      = TEME
TIME_SYSTEM    = UTC
MEAN_ELEMENT_THEORY = SGP/SGP4

EPOCH          = 2026-01-30T22:00:00.999936
MEAN_MOTION    = 15.50514485
ECCENTRICITY   = .000161
INCLINATION    = 42.9992
RA_OF_ASC_NODE = 179.9189
ARG_OF_PERICENTER = 270.7695
MEAN_ANOMALY   = 199.8183

EPHEMERIS_TYPE = 0
CLASSIFICATION_TYPE = U
NORAD_CAT_ID   = 67320
ELEMENT_SET_NO = 999
REV_AT_EPOCH   = 540
BSTAR          = .17398388E-2
MEAN_MOTION_DOT = .102841E-2
MEAN_MOTION_DDOT = 0

CCSDS_OMM_VERS = 2.0
CREATION_DATE  = 
ORIGINATOR     = 

OBJECT_NAME    = STARLINK-36462
OBJECT_ID      = 2026-002S
CENTER_NAME    = EARTH
REF_FRAME      = TEME
TIME_SYSTEM    = UTC
MEAN_ELEMENT_THEORY = SGP/SGP4

EPOCH          = 2026-01-30T22:00:00.999936
MEAN_MOTION    = 15.50510458
ECCENTRICITY   = .00016161
INCLINATION    = 42.9991
RA_OF_ASC_NODE = 179.9090
ARG_OF_PERICENTER = 274.7559
MEAN_ANOMALY   = 199.6644

EPHEMERIS_TYPE = 0
CLASSIFICATION_TYPE = U
NORAD_CAT_ID   = 67321
ELEMENT_SET_NO = 999
REV_AT_EPOCH   = 534
BSTAR          = .18627823E-2
MEAN_MOTION_DOT = .110221E-2
MEAN_MOTION_DDOT = 0

CCSDS_OMM_VERS = 2.0
CREATION_DATE  = 
ORIGINATOR     = 

OBJECT_NAME    = STARLINK-36434
OBJECT_ID      = 2026-002T
CENTER_NAME    = EARTH
REF_FRAME      = TEME
TIME_SYSTEM    = UTC
MEAN_ELEMENT_THEORY = SGP/SGP4

EPOCH          = 2026-01-30T22:00:00.999936
MEAN_MOTION    = 15.50513618
ECCENTRICITY   = .00016414
INCLINATION    = 42.9991
RA_OF_ASC_NODE = 179.9140
ARG_OF_PERICENTER = 273.5447
MEAN_ANOMALY   = 198.9616

EPHEMERIS_TYPE = 0
CLASSIFICATION_TYPE = U
NORAD_CAT_ID   = 67322
ELEMENT_SET_NO = 999
REV_AT_EPOCH   = 534
BSTAR          = .17353246E-2
MEAN_MOTION_DOT = .102566E-2
MEAN_MOTION_DDOT = 0

CCSDS_OMM_VERS = 2.0
CREATION_DATE  = 
ORIGINATOR     = 

OBJECT_NAME    = STARLINK-36497
OBJECT_ID      = 2026-002U
CENTER_NAME    = EARTH
REF_FRAME      = TEME
TIME_SYSTEM    = UTC
MEAN_ELEMENT_THEORY = SGP/SGP4

EPOCH          = 2026-01-30T22:00:00.999936
MEAN_MOTION    = 15.50507104
ECCENTRICITY   = .00023775
INCLINATION    = 42.9992
RA_OF_ASC_NODE = 179.9039
ARG_OF_PERICENTER = 281.2987
MEAN_ANOMALY   = 195.0413

EPHEMERIS_TYPE = 0
CLASSIFICATION_TYPE = U
NORAD_CAT_ID   = 67323
ELEMENT_SET_NO = 999
REV_AT_EPOCH   = 540
BSTAR          = .19889967E-2
MEAN_MOTION_DOT = .117817E-2
MEAN_MOTION_DDOT = 0

CCSDS_OMM_VERS = 2.0
CREATION_DATE  = 
ORIGINATOR     = 

OBJECT_NAME    = STARLINK-36471
OBJECT_ID      = 2026-002V
CENTER_NAME    = EARTH
REF_FRAME      = TEME
TIME_SYSTEM    = UTC
MEAN_ELEMENT_THEORY = SGP/SGP4

EPOCH          = 2026-01-30T22:00:00.999936
MEAN_MOTION    = 15.50513564
ECCENTRICITY   = .00023609
INCLINATION    = 42.9992
RA_OF_ASC_NODE = 179.8946
ARG_OF_PERICENTER = 279.5905
MEAN_ANOMALY   = 200.5754

EPHEMERIS_TYPE = 0
CLASSIFICATION_TYPE = U
NORAD_CAT_ID   = 67324
ELEMENT_SET_NO = 999
REV_AT_EPOCH   = 534
BSTAR          = .18833852E-2
MEAN_MOTION_DOT = .111478E-2
MEAN_MOTION_DDOT = 0

CCSDS_OMM_VERS = 2.0
CREATION_DATE  = 
ORIGINATOR     = 

OBJECT_NAME    = STARLINK-36473
OBJECT_ID      = 2026-002W
CENTER_NAME    = EARTH
REF_FRAME      = TEME
TIME_SYSTEM    = UTC
MEAN_ELEMENT_THEORY = SGP/SGP4

EPOCH          = 2026-01-30T22:00:00.999936
MEAN_MOTION    = 15.50498402
ECCENTRICITY   = .00021665
INCLINATION    = 42.9992
RA_OF_ASC_NODE = 179.8990
ARG_OF_PERICENTER = 288.8583
MEAN_ANOMALY   = 189.4192

EPHEMERIS_TYPE = 0
CLASSIFICATION_TYPE = U
NORAD_CAT_ID   = 67325
ELEMENT_SET_NO = 999
REV_AT_EPOCH   = 550
BSTAR          = .18235016E-2
MEAN_MOTION_DOT = .107812E-2
MEAN_MOTION_DDOT = 0

CCSDS_OMM_VERS = 2.0
CREATION_DATE  = 
ORIGINATOR     = 

OBJECT_NAME    = STARLINK-36430
OBJECT_ID      = 2026-002X
CENTER_NAME    = EARTH
REF_FRAME      = TEME
TIME_SYSTEM    = UTC
MEAN_ELEMENT_THEORY = SGP/SGP4

EPOCH          = 2026-01-30T22:00:00.999936
MEAN_MOTION    = 15.50510512
ECCENTRICITY   = .00023833
INCLINATION    = 42.9993
RA_OF_ASC_NODE = 179.8839
ARG_OF_PERICENTER = 282.6063
MEAN_ANOMALY   = 201.4010

EPHEMERIS_TYPE = 0
CLASSIFICATION_TYPE = U
NORAD_CAT_ID   = 67326
ELEMENT_SET_NO = 999
REV_AT_EPOCH   = 550
BSTAR          = .19234756E-2
MEAN_MOTION_DOT = .113881E-2
MEAN_MOTION_DDOT = 0

CCSDS_OMM_VERS = 2.0
CREATION_DATE  = 
ORIGINATOR     = 

OBJECT_NAME    = STARLINK-36501
OBJECT_ID      = 2026-002Y
CENTER_NAME    = EARTH
REF_FRAME      = TEME
TIME_SYSTEM    = UTC
MEAN_ELEMENT_THEORY = SGP/SGP4

EPOCH          = 2026-01-30T22:00:00.999936
MEAN_MOTION    = 15.50513340
ECCENTRICITY   = .00023341
INCLINATION    = 42.9991
RA_OF_ASC_NODE = 179.8897
ARG_OF_PERICENTER = 283.1650
MEAN_ANOMALY   = 198.9214

EPHEMERIS_TYPE = 0
CLASSIFICATION_TYPE = U
NORAD_CAT_ID   = 67327
ELEMENT_SET_NO = 999
REV_AT_EPOCH   = 534
BSTAR          = .18337482E-2
MEAN_MOTION_DOT = .108488E-2
MEAN_MOTION_DDOT = 0

