STARLINK-36461          
1 67316U 26002M   26030.91667824  .00105928  00000+0  17913-2 0  9994
2 67316  42.9993 179.9371 0001889 280.7317 182.1882 15.50512021  5504
STARLINK-36450          
1 67317U 26002N   26030.91667824  .00115866  00000+0  19565-2 0  9992
2 67317  42.9991 179.9332 0001659 273.9001 190.9345 15.50510173  5506
STARLINK-36498          
1 67318U 26002P   26030.91667824  .00112975  00000+0  19084-2 0  9997
2 67318  42.9995 179.9223 0002269 277.9116 190.7550 15.50511831  5406
STARLINK-36470          
1 67319U 26002Q   26030.91667824  .00104557  00000+0  17685-2 0  9990
2 67319  42.9992 179.9278 0001744 276.2319 190.5237 15.50512351  5406
STARLINK-36500          
1 67320U 26002R   26030.91667824  .00102841  00000+0  17398-2 0  9997
2 67320  42.9992 179.9189 0001610 270.7695 199.8183 15.50514485  5409
STARLINK-36462          
1 67321U 26002S   26030.91667824  .00110221  00000+0  18628-2 0  9996
2 67321  42.9991 179.9090 0001616 274.7559 199.6644 15.50510458  5348
STARLINK-36434          
1 67322U 26002T   26030.91667824  .00102566  00000+0  17353-2 0  9994
2 67322  42.9991 179.9140 0001641 273.5447 198.9616 15.50513618  5348
STARLINK-36497          
1 67323U 26002U   26030.91667824  .00117817  00000+0  19890-2 0  9998
2 67323  42.9992 179.9039 0002377 281.2987 195.0413 15.50507104  5402
STARLINK-36471          
1 67324U 26002V   26030.91667824  .00111478  00000+0  18834-2 0  9993
2 67324  42.9992 179.8946 0002360 279.5905 200.5754 15.50513564  5341
STARLINK-36473          
1 67325U 26002W   26030.91667824  .00107812  00000+0  18235-2 0  9996
2 67325  42.9992 179.8990 0002166 288.8583 189.4192 15.50498402  5502
STARLINK-36430          
1 67326U 26002X   26030.91667824  .00113881  00000+0  19235-2 0  9991
2 67326  42.9993 179.8839 0002383 282.6063 201.4010 15.50510512  5503
STARLINK-36501          
1 67327U 26002Y   26030.91667824  .00108488  00000+0  18337-2 0  9991
2 67327  42.9991 179.8897 0002334 283.1650 198.9214 15.50513340  5340
